{
    "links": {
        "self": "http://www.neowsapp.com/rest/v1/neo/3797489?api_key=iIulBulltgU6a56xZRHN4H3l9WmuAYTsLGpBGhQ2"
    },
    "id": "3797489",
    "neo_reference_id": "3797489",
    "name": "(2018 AB4)",
    "designation": "2018 AB4",
    "nasa_jpl_url": "http://ssd.jpl.nasa.gov/sbdb.cgi?sstr=3797489",
    "absolute_magnitude_h": 25.6,
    "estimated_diameter": {
        "kilometers": {
            "estimated_diameter_min": 0.0201629919,
            "estimated_diameter_max": 0.0450858206
        },
        "meters": {
            "estimated_diameter_min": 20.1629919443,
            "estimated_diameter_max": 45.0858206172
        },
        "miles": {
            "estimated_diameter_min": 0.0125286985,
            "estimated_diameter_max": 0.0280150214
        },
        "feet": {
            "estimated_diameter_min": 66.1515504905,
            "estimated_diameter_max": 147.9193637137
        }
    },
    "is_potentially_hazardous_asteroid": false,
    "close_approach_data": [
        {
            "close_approach_date": "2018-01-07",
            "close_approach_date_full": "2018-Jan-07 21:04",
            "epoch_date_close_approach": 1515359040000,
            "relative_velocity": {
                "kilometers_per_second": "1.8132382994",
                "kilometers_per_hour": "6527.657877814",
                "miles_per_hour": "4056.0327519117"
            },
            "miss_distance": {
                "astronomical": "0.1191694908",
                "lunar": "46.3569319212",
                "kilometers": "17827501.992664596",
                "miles": "11077496.0679235848"
            },
            "orbiting_body": "Earth"
        }
    ],
    "orbital_data": {
        "orbit_id": "3",
        "orbit_determination_date": "2018-02-10 07:09:36",
        "first_observation_date": "2018-01-13",
        "last_observation_date": "2018-01-25",
        "data_arc_in_days": 12,
        "observations_used": 26,
        "orbit_uncertainty": "8",
        "minimum_orbit_intersection": ".112305",
        "jupiter_tisserand_invariant": "5.063",
        "epoch_osculation": "2458136.5",
        "eccentricity": ".1400269653760737",
        "semi_major_axis": "1.273689583474637",
        "inclination": "3.429296234057142",
        "ascending_node_longitude": "106.1657906215743",
        "orbital_period": "525.0417302731495",
        "perihelion_distance": "1.095338696269568",
        "perihelion_argument": "349.4717102755815",
        "aphelion_distance": "1.452040470679705",
        "perihelion_time": "2458111.930327505132",
        "mean_anomaly": "16.84643636525974",
        "mean_motion": ".6856597851997638",
        "equinox": "J2000",
        "orbit_class": {
            "orbit_class_type": "AMO",
            "orbit_class_description": "Near-Earth asteroid orbits similar to that of 1221 Amor",
            "orbit_class_range": "1.017 AU < q (perihelion) < 1.3 AU"
        }
    },
    "is_sentry_object": false
}